{
    "links": {
        "self": "http://www.neowsapp.com/rest/v1/neo/3715096?api_key=iIulBulltgU6a56xZRHN4H3l9WmuAYTsLGpBGhQ2"
    },
    "id": "3715096",
    "neo_reference_id": "3715096",
    "name": "(2015 FZ284)",
    "designation": "2015 FZ284",
    "nasa_jpl_url": "http://ssd.jpl.nasa.gov/sbdb.cgi?sstr=3715096",
    "absolute_magnitude_h": 23.6,
    "estimated_diameter": {
        "kilometers": {
            "estimated_diameter_min": 0.0506471459,
            "estimated_diameter_max": 0.1132504611
        },
        "meters": {
            "estimated_diameter_min": 50.6471458835,
            "estimated_diameter_max": 113.2504610618
        },
        "miles": {
            "estimated_diameter_min": 0.0314706677,
            "estimated_diameter_max": 0.0703705522
        },
        "feet": {
            "estimated_diameter_min": 166.1651821003,
            "estimated_diameter_max": 371.5566426699
        }
    },
    "is_potentially_hazardous_asteroid": false,
    "close_approach_data": [
        {
            "close_approach_date": "2013-03-22",
            "close_approach_date_full": "2013-Mar-22 17:36",
            "epoch_date_close_approach": 1363973760000,
            "relative_velocity": {
                "kilometers_per_second": "24.8928474414",
                "kilometers_per_hour": "89614.2507891574",
                "miles_per_hour": "55682.8104417406"
            },
            "miss_distance": {
                "astronomical": "0.4568079387",
                "lunar": "177.6982881543",
                "kilometers": "68337494.628610569",
                "miles": "42462950.1290570922"
            },
            "orbiting_body": "Earth"
        },
        {
            "close_approach_date": "2014-03-29",
            "close_approach_date_full": "2014-Mar-29 16:16",
            "epoch_date_close_approach": 1396109760000,
            "relative_velocity": {
                "kilometers_per_second": "19.0458721873",
                "kilometers_per_hour": "68565.1398744348",
                "miles_per_hour": "42603.7114958676"
            },
            "miss_distance": {
                "astronomical": "0.2276023221",
                "lunar": "88.5373032969",
                "kilometers": "34048822.593213927",
                "miles": "21156957.2982771126"
            },
            "orbiting_body": "Earth"
        },
        {
            "close_approach_date": "2015-04-01",
            "close_approach_date_full": "2015-Apr-01 08:17",
            "epoch_date_close_approach": 1427876220000,
            "relative_velocity": {
                "kilometers_per_second": "14.9151386808",
                "kilometers_per_hour": "53694.4992507536",
                "miles_per_hour": "33363.673715003"
            },
            "miss_distance": {
                "astronomical": "0.0998970897",
                "lunar": "38.8599678933",
                "kilometers": "14944391.838318939",
                "miles": "9286014.4901177982"
            },
            "orbiting_body": "Earth"
        },
        {
            "close_approach_date": "2016-03-25",
            "close_approach_date_full": "2016-Mar-25 13:25",
            "epoch_date_close_approach": 1458912300000,
            "relative_velocity": {
                "kilometers_per_second": "13.5723712438",
                "kilometers_per_hour": "48860.5364777005",
                "miles_per_hour": "30360.037235269"
            },
            "miss_distance": {
                "astronomical": "0.2683242859",
                "lunar": "104.3781472151",
                "kilometers": "40140741.639911033",
                "miles": "24942300.2652089354"
            },
            "orbiting_body": "Earth"
        },
        {
            "close_approach_date": "2017-03-09",
            "close_approach_date_full": "2017-Mar-09 02:56",
            "epoch_date_close_approach": 1489028160000,
            "relative_velocity": {
                "kilometers_per_second": "13.5170127718",
                "kilometers_per_hour": "48661.2459784199",
                "miles_per_hour": "30236.2058692021"
            },
            "miss_distance": {
                "astronomical": "0.4454541039",
                "lunar": "173.2816464171",
                "kilometers": "66638985.126198693",
                "miles": "41407545.2640322434"
            },
            "orbiting_body": "Earth"
        }
    ],
    "orbital_data": {
        "orbit_id": "8",
        "orbit_determination_date": "2017-04-06 08:34:39",
        "first_observation_date": "2015-03-29",
        "last_observation_date": "2015-04-08",
        "data_arc_in_days": 10,
        "observations_used": 38,
        "orbit_uncertainty": "8",
        "minimum_orbit_intersection": ".0951654",
        "jupiter_tisserand_invariant": "5.832",
        "epoch_osculation": "2457113.5",
        "eccentricity": ".2501807748111771",
        "semi_major_axis": "1.027421635857472",
        "inclination": "26.90427487096026",
        "ascending_node_longitude": "185.587711359196",
        "orbital_period": "380.3833399407699",
        "perihelion_distance": ".7703804949408823",
        "perihelion_argument": "121.7595217421747",
        "aphelion_distance": "1.284462776774061",
        "perihelion_time": "2457208.599310234037",
        "mean_anomaly": "269.9967109769207",
        "mean_motion": ".9464136890329009",
        "equinox": "J2000",
        "orbit_class": {
            "orbit_class_type": "APO",
            "orbit_class_description": "Near-Earth asteroid orbits which cross the Earth’s orbit similar to that of 1862 Apollo",
            "orbit_class_range": "a (semi-major axis) > 1.0 AU; q (perihelion) < 1.017 AU"
        }
    },
    "is_sentry_object": false
}